[{"OBJECT_NAME":"STARLINK-11305 [DTC]","OBJECT_ID":"2024-175E","EPOCH":"2025-08-10T17:13:22.437984","MEAN_MOTION":15.69684615,"ECCENTRICITY":2.98e-5,"INCLINATION":53.158,"RA_OF_ASC_NODE":16.0859,"ARG_OF_PERICENTER":96.8541,"MEAN_ANOMALY":263.2511,"EPHEMERIS_TYPE":0,"CLASSIFICATION_TYPE":"U","NORAD_CAT_ID":61247,"ELEMENT_SET_NO":999,"REV_AT_EPOCH":5023,"BSTAR":-3.9498e-5,"MEAN_MOTION_DOT":-5.364e-5,"MEAN_MOTION_DDOT":0},{"OBJECT_NAME":"STARLINK-11317 [DTC]","OBJECT_ID":"2024-175F","EPOCH":"2025-08-10T17:06:19.124640","MEAN_MOTION":15.69680412,"ECCENTRICITY":7.18e-5,"INCLINATION":53.1589,"RA_OF_ASC_NODE":16.0513,"ARG_OF_PERICENTER":79.5427,"MEAN_ANOMALY":280.5671,"EPHEMERIS_TYPE":0,"CLASSIFICATION_TYPE":"U","NORAD_CAT_ID":61248,"ELEMENT_SET_NO":999,"REV_AT_EPOCH":5023,"BSTAR":-4.7356e-5,"MEAN_MOTION_DOT":-6.313e-5,"MEAN_MOTION_DDOT":0},{"OBJECT_NAME":"STARLINK-11293 [DTC]","OBJECT_ID":"2024-175G","EPOCH":"2025-08-11T03:40:59.719008","MEAN_MOTION":15.69715686,"ECCENTRICITY":6.11e-5,"INCLINATION":53.1589,"RA_OF_ASC_NODE":13.8214,"ARG_OF_PERICENTER":76.2721,"MEAN_ANOMALY":283.8365,"EPHEMERIS_TYPE":0,"CLASSIFICATION_TYPE":"U","NORAD_CAT_ID":61249,"ELEMENT_SET_NO":999,"REV_AT_EPOCH":5030,"BSTAR":-1.6457e-6,"MEAN_MOTION_DOT":-7.87e-6,"MEAN_MOTION_DDOT":0},{"OBJECT_NAME":"STARLINK-11334 [DTC]","OBJECT_ID":"2024-175H","EPOCH":"2025-08-10T17:27:50.250816","MEAN_MOTION":15.74114181,"ECCENTRICITY":0.0003228,"INCLINATION":53.1572,"RA_OF_ASC_NODE":15.4359,"ARG_OF_PERICENTER":306.7901,"MEAN_ANOMALY":53.2822,"EPHEMERIS_TYPE":0,"CLASSIFICATION_TYPE":"U","NORAD_CAT_ID":61250,"ELEMENT_SET_NO":999,"REV_AT_EPOCH":5024,"BSTAR":0.00019129,"MEAN_MOTION_DOT":0.0002739,"MEAN_MOTION_DDOT":0},{"OBJECT_NAME":"STARLINK-11319 [DTC]","OBJECT_ID":"2024-175J","EPOCH":"2025-08-11T03:27:01.156896","MEAN_MOTION":15.69707488,"ECCENTRICITY":4.68e-5,"INCLINATION":53.1593,"RA_OF_ASC_NODE":14.4881,"ARG_OF_PERICENTER":97.8201,"MEAN_ANOMALY":262.287,"EPHEMERIS_TYPE":0,"CLASSIFICATION_TYPE":"U","NORAD_CAT_ID":61251,"ELEMENT_SET_NO":999,"REV_AT_EPOCH":5029,"BSTAR":-2.8713e-6,"MEAN_MOTION_DOT":-9.35e-6,"MEAN_MOTION_DDOT":0},{"OBJECT_NAME":"STARLINK-11318 [DTC]","OBJECT_ID":"2024-175K","EPOCH":"2025-08-11T03:19:57.389952","MEAN_MOTION":15.69708729,"ECCENTRICITY":5.13e-5,"INCLINATION":53.1595,"RA_OF_ASC_NODE":14.4558,"ARG_OF_PERICENTER":98.1065,"MEAN_ANOMALY":262.0011,"EPHEMERIS_TYPE":0,"CLASSIFICATION_TYPE":"U","NORAD_CAT_ID":61252,"ELEMENT_SET_NO":999,"REV_AT_EPOCH":5146,"BSTAR":-9.5576e-6,"MEAN_MOTION_DOT":-1.745e-5,"MEAN_MOTION_DDOT":0},{"OBJECT_NAME":"STARLINK-11311 [DTC]","OBJECT_ID":"2024-175L","EPOCH":"2025-08-11T03:12:53.377632","MEAN_MOTION":15.69714101,"ECCENTRICITY":4.58e-5,"INCLINATION":53.1591,"RA_OF_ASC_NODE":14.4226,"ARG_OF_PERICENTER":72.1054,"MEAN_ANOMALY":288.0014,"EPHEMERIS_TYPE":0,"CLASSIFICATION_TYPE":"U","NORAD_CAT_ID":61253,"ELEMENT_SET_NO":999,"REV_AT_EPOCH":5150,"BSTAR":-3.902e-6,"MEAN_MOTION_DOT":-1.06e-5,"MEAN_MOTION_DDOT":0},{"OBJECT_NAME":"STARLINK-11306 [DTC]","OBJECT_ID":"2024-175M","EPOCH":"2025-08-11T03:05:50.220672","MEAN_MOTION":15.69705658,"ECCENTRICITY":9.64e-5,"INCLINATION":53.1588,"RA_OF_ASC_NODE":14.3895,"ARG_OF_PERICENTER":113.4478,"MEAN_ANOMALY":246.6641,"EPHEMERIS_TYPE":0,"CLASSIFICATION_TYPE":"U","NORAD_CAT_ID":61254,"ELEMENT_SET_NO":999,"REV_AT_EPOCH":5149,"BSTAR":-1.4684e-5,"MEAN_MOTION_DOT":-2.366e-5,"MEAN_MOTION_DDOT":0},{"OBJECT_NAME":"STARLINK-11313 [DTC]","OBJECT_ID":"2024-175N","EPOCH":"2025-08-11T02:58:45.793632","MEAN_MOTION":15.69712329,"ECCENTRICITY":6.47e-5,"INCLINATION":53.1595,"RA_OF_ASC_NODE":14.3564,"ARG_OF_PERICENTER":158.4909,"MEAN_ANOMALY":201.6136,"EPHEMERIS_TYPE":0,"CLASSIFICATION_TYPE":"U","NORAD_CAT_ID":61255,"ELEMENT_SET_NO":999,"REV_AT_EPOCH":5029,"BSTAR":-1.3484e-5,"MEAN_MOTION_DOT":-2.221e-5,"MEAN_MOTION_DDOT":0},{"OBJECT_NAME":"STARLINK-32431","OBJECT_ID":"2024-175P","EPOCH":"2025-08-11T01:11:55.491648","MEAN_MOTION":15.30193003,"ECCENTRICITY":0.0001235,"INCLINATION":53.1595,"RA_OF_ASC_NODE":92.4425,"ARG_OF_PERICENTER":79.3065,"MEAN_ANOMALY":280.8074,"EPHEMERIS_TYPE":0,"CLASSIFICATION_TYPE":"U","NORAD_CAT_ID":61256,"ELEMENT_SET_NO":999,"REV_AT_EPOCH":4920,"BSTAR":-2.6432e-5,"MEAN_MOTION_DOT":-1.142e-5,"MEAN_MOTION_DDOT":0},{"OBJECT_NAME":"STARLINK-32432","OBJECT_ID":"2024-175Q","EPOCH":"2025-08-11T01:16:29.054784","MEAN_MOTION":15.30191948,"ECCENTRICITY":0.0001292,"INCLINATION":53.1589,"RA_OF_ASC_NODE":92.4637,"ARG_OF_PERICENTER":77.154,"MEAN_ANOMALY":282.9605,"EPHEMERIS_TYPE":0,"CLASSIFICATION_TYPE":"U","NORAD_CAT_ID":61257,"ELEMENT_SET_NO":999,"REV_AT_EPOCH":4920,"BSTAR":-8.0278e-6,"MEAN_MOTION_DOT":-5.97e-6,"MEAN_MOTION_DDOT":0},{"OBJECT_NAME":"STARLINK-32382","OBJECT_ID":"2024-175R","EPOCH":"2025-08-10T22:12:56.693952","MEAN_MOTION":15.30192887,"ECCENTRICITY":0.0001175,"INCLINATION":53.1596,"RA_OF_ASC_NODE":93.0889,"ARG_OF_PERICENTER":79.0582,"MEAN_ANOMALY":281.0551,"EPHEMERIS_TYPE":0,"CLASSIFICATION_TYPE":"U","NORAD_CAT_ID":61258,"ELEMENT_SET_NO":999,"REV_AT_EPOCH":4918,"BSTAR":-7.596e-6,"MEAN_MOTION_DOT":-5.84e-6,"MEAN_MOTION_DDOT":0},{"OBJECT_NAME":"STARLINK-32435","OBJECT_ID":"2024-175S","EPOCH":"2025-08-10T20:49:31.607616","MEAN_MOTION":15.30190139,"ECCENTRICITY":9.66e-5,"INCLINATION":53.1581,"RA_OF_ASC_NODE":93.4439,"ARG_OF_PERICENTER":97.531,"MEAN_ANOMALY":262.5801,"EPHEMERIS_TYPE":0,"CLASSIFICATION_TYPE":"U","NORAD_CAT_ID":61259,"ELEMENT_SET_NO":999,"REV_AT_EPOCH":4917,"BSTAR":-6.6571e-5,"MEAN_MOTION_DOT":-2.329e-5,"MEAN_MOTION_DDOT":0},{"OBJECT_NAME":"STARLINK-32474","OBJECT_ID":"2024-175T","EPOCH":"2025-08-11T01:02:48.537312","MEAN_MOTION":15.30188129,"ECCENTRICITY":0.0001194,"INCLINATION":53.1604,"RA_OF_ASC_NODE":92.4022,"ARG_OF_PERICENTER":88.0868,"MEAN_ANOMALY":272.027,"EPHEMERIS_TYPE":0,"CLASSIFICATION_TYPE":"U","NORAD_CAT_ID":61260,"ELEMENT_SET_NO":999,"REV_AT_EPOCH":4920,"BSTAR":-1.0872e-5,"MEAN_MOTION_DOT":-6.81e-6,"MEAN_MOTION_DDOT":0},{"OBJECT_NAME":"STARLINK-32447","OBJECT_ID":"2024-175U","EPOCH":"2025-08-11T01:07:21.780768","MEAN_MOTION":15.30190821,"ECCENTRICITY":0.0001418,"INCLINATION":53.1597,"RA_OF_ASC_NODE":92.4211,"ARG_OF_PERICENTER":76.157,"MEAN_ANOMALY":283.9589,"EPHEMERIS_TYPE":0,"CLASSIFICATION_TYPE":"U","NORAD_CAT_ID":61261,"ELEMENT_SET_NO":999,"REV_AT_EPOCH":4920,"BSTAR":-6.6787e-6,"MEAN_MOTION_DOT":-5.57e-6,"MEAN_MOTION_DDOT":0},{"OBJECT_NAME":"STARLINK-32446","OBJECT_ID":"2024-175V","EPOCH":"2025-08-11T01:27:07.335648","MEAN_MOTION":15.301938,"ECCENTRICITY":0.0001096,"INCLINATION":53.1589,"RA_OF_ASC_NODE":92.5106,"ARG_OF_PERICENTER":76.3515,"MEAN_ANOMALY":283.7608,"EPHEMERIS_TYPE":0,"CLASSIFICATION_TYPE":"U","NORAD_CAT_ID":61262,"ELEMENT_SET_NO":999,"REV_AT_EPOCH":4920,"BSTAR":-3.1456e-5,"MEAN_MOTION_DOT":-1.29e-5,"MEAN_MOTION_DDOT":0},{"OBJECT_NAME":"STARLINK-32174","OBJECT_ID":"2024-183A","EPOCH":"2025-08-11T04:30:10.939104","MEAN_MOTION":15.39624339,"ECCENTRICITY":0.0001164,"INCLINATION":53.1617,"RA_OF_ASC_NODE":32.3958,"ARG_OF_PERICENTER":89.0447,"MEAN_ANOMALY":271.0691,"EPHEMERIS_TYPE":0,"CLASSIFICATION_TYPE":"U","NORAD_CAT_ID":61509,"ELEMENT_SET_NO":999,"REV_AT_EPOCH":4753,"BSTAR":9.145e-6,"MEAN_MOTION_DOT":-3.3e-7,"MEAN_MOTION_DDOT":0},{"OBJECT_NAME":"STARLINK-32139","OBJECT_ID":"2024-183B","EPOCH":"2025-08-11T04:38:00.381408","MEAN_MOTION":15.30180816,"ECCENTRICITY":9.18e-5,"INCLINATION":53.1604,"RA_OF_ASC_NODE":40.2469,"ARG_OF_PERICENTER":83.9182,"MEAN_ANOMALY":276.1924,"EPHEMERIS_TYPE":0,"CLASSIFICATION_TYPE":"U","NORAD_CAT_ID":61510,"ELEMENT_SET_NO":999,"REV_AT_EPOCH":4743,"BSTAR":-5.79e-5,"MEAN_MOTION_DOT":-2.072e-5,"MEAN_MOTION_DDOT":0},{"OBJECT_NAME":"STARLINK-32140","OBJECT_ID":"2024-183C","EPOCH":"2025-08-10T18:49:21.616608","MEAN_MOTION":15.30190073,"ECCENTRICITY":0.0001105,"INCLINATION":53.1602,"RA_OF_ASC_NODE":41.9599,"ARG_OF_PERICENTER":88.649,"MEAN_ANOMALY":271.4637,"EPHEMERIS_TYPE":0,"CLASSIFICATION_TYPE":"U","NORAD_CAT_ID":61511,"ELEMENT_SET_NO":999,"REV_AT_EPOCH":4736,"BSTAR":-2.3039e-5,"MEAN_MOTION_DOT":-1.041e-5,"MEAN_MOTION_DDOT":0},{"OBJECT_NAME":"STARLINK-32201","OBJECT_ID":"2024-183D","EPOCH":"2025-08-11T04:56:26.953728","MEAN_MOTION":15.39617855,"ECCENTRICITY":0.0001108,"INCLINATION":53.1606,"RA_OF_ASC_NODE":32.5116,"ARG_OF_PERICENTER":90.5539,"MEAN_ANOMALY":269.5593,"EPHEMERIS_TYPE":0,"CLASSIFICATION_TYPE":"U","NORAD_CAT_ID":61512,"ELEMENT_SET_NO":999,"REV_AT_EPOCH":4744,"BSTAR":5.8776e-6,"MEAN_MOTION_DOT":-1.64e-6,"MEAN_MOTION_DDOT":0},{"OBJECT_NAME":"STARLINK-32030","OBJECT_ID":"2024-183E","EPOCH":"2025-08-11T04:47:06.358560","MEAN_MOTION":15.30193608,"ECCENTRICITY":0.0001118,"INCLINATION":53.1607,"RA_OF_ASC_NODE":40.2876,"ARG_OF_PERICENTER":99.4092,"MEAN_ANOMALY":260.7035,"EPHEMERIS_TYPE":0,"CLASSIFICATION_TYPE":"U","NORAD_CAT_ID":61513,"ELEMENT_SET_NO":999,"REV_AT_EPOCH":4743,"BSTAR":-6.2482e-6,"MEAN_MOTION_DOT":-5.44e-6,"MEAN_MOTION_DDOT":0},{"OBJECT_NAME":"STARLINK-31837","OBJECT_ID":"2024-183F","EPOCH":"2025-08-11T04:28:52.172544","MEAN_MOTION":15.30193629,"ECCENTRICITY":0.000109,"INCLINATION":53.1609,"RA_OF_ASC_NODE":40.1941,"ARG_OF_PERICENTER":100.1131,"MEAN_ANOMALY":259.9993,"EPHEMERIS_TYPE":0,"CLASSIFICATION_TYPE":"U","NORAD_CAT_ID":61514,"ELEMENT_SET_NO":999,"REV_AT_EPOCH":4742,"BSTAR":-7.3471e-6,"MEAN_MOTION_DOT":-5.77e-6,"MEAN_MOTION_DDOT":0},{"OBJECT_NAME":"STARLINK-32136","OBJECT_ID":"2024-183G","EPOCH":"2025-08-11T05:00:47.451456","MEAN_MOTION":15.30184123,"ECCENTRICITY":0.0001249,"INCLINATION":53.1609,"RA_OF_ASC_NODE":40.3482,"ARG_OF_PERICENTER":93.4968,"MEAN_ANOMALY":266.6176,"EPHEMERIS_TYPE":0,"CLASSIFICATION_TYPE":"U","NORAD_CAT_ID":61515,"ELEMENT_SET_NO":999,"REV_AT_EPOCH":4742,"BSTAR":-3.429e-5,"MEAN_MOTION_DOT":-1.374e-5,"MEAN_MOTION_DDOT":0}]
